{
  "type": "FeatureCollection",
  "features": [
    {
      "type": "Feature",
      "properties": {
        "norad_id": 36045,
        "name": "COSMOS 2251 DEB",
        "group": "cosmos-2251-debris",
        "lat": 71.15906013735434,
        "lon": -164.93661374855373,
        "alt_km": 621.466635114738,
        "timestamp": "2025-12-05T07:38:19.242375+00:00",
        "meta_object_name": "COSMOS 2251 DEB",
        "meta_object_id": "1993-036AXG",
        "meta_epoch": "2025-12-01T23:07:36.106176",
        "meta_mean_motion": 14.69377741,
        "meta_eccentricity": 0.00488719,
        "meta_inclination": 73.7639,
        "meta_ra_of_asc_node": 80.3157,
        "meta_arg_of_pericenter": 97.908,
        "meta_mean_anomaly": 262.764,
        "meta_ephemeris_type": 0,
        "meta_classification_type": "U",
        "meta_norad_cat_id": 36045,
        "meta_element_set_no": 999,
        "meta_rev_at_epoch": 8230,
        "meta_bstar": 0.0029815468,
        "meta_mean_motion_dot": 0.0001797,
        "meta_mean_motion_ddot": 0,
        "tle_line1": "1 36045U 93036AXG 25335.96361234  .00017970  00000+0  29815-2 0  9991",
        "tle_line2": "2 36045  73.7639  80.3157 0048871  97.9080 262.7640 14.69377741 82309"
      },
      "geometry": {
        "type": "Point",
        "coordinates": [
          -164.93661374855373,
          71.15906013735434
        ]
      }
    },
    {
      "type": "Feature",
      "properties": {
        "norad_id": 36046,
        "name": "COSMOS 2251 DEB",
        "group": "cosmos-2251-debris",
        "lat": -71.0836577756468,
        "lon": -125.9584240831724,
        "alt_km": 719.7673241954399,
        "timestamp": "2025-12-05T07:38:19.242386+00:00",
        "meta_object_name": "COSMOS 2251 DEB",
        "meta_object_id": "1993-036AXH",
        "meta_epoch": "2025-12-01T14:24:58.053024",
        "meta_mean_motion": 14.65147038,
        "meta_eccentricity": 0.00552553,
        "meta_inclination": 74.0167,
        "meta_ra_of_asc_node": 297.9586,
        "meta_arg_of_pericenter": 87.1353,
        "meta_mean_anomaly": 32.6466,
        "meta_ephemeris_type": 0,
        "meta_classification_type": "U",
        "meta_norad_cat_id": 36046,
        "meta_element_set_no": 999,
        "meta_rev_at_epoch": 63840,
        "meta_bstar": 0.0006286755,
        "meta_mean_motion_dot": 3.426e-05,
        "meta_mean_motion_ddot": 0,
        "tle_line1": "1 36046U 93036AXH 25335.60067191  .00003426  00000+0  62868-3 0  9995",
        "tle_line2": "2 36046  74.0167 297.9586 0055255  87.1353  32.6466 14.65147038638408"
      },
      "geometry": {
        "type": "Point",
        "coordinates": [
          -125.9584240831724,
          -71.0836577756468
        ]
      }
    },
    {
      "type": "Feature",
      "properties": {
        "norad_id": 36047,
        "name": "COSMOS 2251 DEB",
        "group": "cosmos-2251-debris",
        "lat": 57.234349824573535,
        "lon": 142.73128094208212,
        "alt_km": 576.4482960795176,
        "timestamp": "2025-12-05T07:38:19.242396+00:00",
        "meta_object_name": "COSMOS 2251 DEB",
        "meta_object_id": "1993-036AXJ",
        "meta_epoch": "2025-12-03T18:10:50.756160",
        "meta_mean_motion": 14.95364522,
        "meta_eccentricity": 0.00078423,
        "meta_inclination": 74.0348,
        "meta_ra_of_asc_node": 352.2907,
        "meta_arg_of_pericenter": 18.0542,
        "meta_mean_anomaly": 342.0919,
        "meta_ephemeris_type": 0,
        "meta_classification_type": "U",
        "meta_norad_cat_id": 36047,
        "meta_element_set_no": 999,
        "meta_rev_at_epoch": 65805,
        "meta_bstar": 0.0029851567,
        "meta_mean_motion_dot": 0.00033093,
        "meta_mean_motion_ddot": 0,
        "tle_line1": "1 36047U 93036AXJ 25337.75753190  .00033093  00000+0  29852-2 0  9993",
        "tle_line2": "2 36047  74.0348 352.2907 0007842  18.0542 342.0919 14.95364522658050"
      },
      "geometry": {
        "type": "Point",
        "coordinates": [
          142.73128094208212,
          57.234349824573535
        ]
      }
    },
    {
      "type": "Feature",
      "properties": {
        "norad_id": 36048,
        "name": "COSMOS 2251 DEB",
        "group": "cosmos-2251-debris",
        "lat": 25.946647439843712,
        "lon": 124.93863331072167,
        "alt_km": 780.3584085430639,
        "timestamp": "2025-12-05T07:38:19.242406+00:00",
        "meta_object_name": "COSMOS 2251 DEB",
        "meta_object_id": "1993-036AXK",
        "meta_epoch": "2025-12-03T17:20:47.779872",
        "meta_mean_motion": 14.37824674,
        "meta_eccentricity": 0.00262269,
        "meta_inclination": 74.0561,
        "meta_ra_of_asc_node": 315.8673,
        "meta_arg_of_pericenter": 7.889,
        "meta_mean_anomaly": 169.513,
        "meta_ephemeris_type": 0,
        "meta_classification_type": "U",
        "meta_norad_cat_id": 36048,
        "meta_element_set_no": 999,
        "meta_rev_at_epoch": 85372,
        "meta_bstar": 0.00041796322,
        "meta_mean_motion_dot": 1.239e-05,
        "meta_mean_motion_ddot": 0,
        "tle_line1": "1 36048U 93036AXK 25337.72277523  .00001239  00000+0  41796-3 0  9991",
        "tle_line2": "2 36048  74.0561 315.8673 0026226   7.8890 169.5130 14.37824674853725"
      },
      "geometry": {
        "type": "Point",
        "coordinates": [
          124.93863331072167,
          25.946647439843712
        ]
      }
    },
    {
      "type": "Feature",
      "properties": {
        "norad_id": 36049,
        "name": "COSMOS 2251 DEB",
        "group": "cosmos-2251-debris",
        "lat": -26.76092727420738,
        "lon": 125.0928189942106,
        "alt_km": 695.6437610433622,
        "timestamp": "2025-12-05T07:38:19.242417+00:00",
        "meta_object_name": "COSMOS 2251 DEB",
        "meta_object_id": "1993-036AXL",
        "meta_epoch": "2025-12-02T10:47:16.230624",
        "meta_mean_motion": 14.61903141,
        "meta_eccentricity": 0.00113733,
        "meta_inclination": 74.0292,
        "meta_ra_of_asc_node": 138.8873,
        "meta_arg_of_pericenter": 223.356,
        "meta_mean_anomaly": 136.6713,
        "meta_ephemeris_type": 0,
        "meta_classification_type": "U",
        "meta_norad_cat_id": 36049,
        "meta_element_set_no": 999,
        "meta_rev_at_epoch": 85214,
        "meta_bstar": 0.0017572589,
        "meta_mean_motion_dot": 8.782e-05,
        "meta_mean_motion_ddot": 0,
        "tle_line1": "1 36049U 93036AXL 25336.44949341  .00008782  00000+0  17573-2 0  9999",
        "tle_line2": "2 36049  74.0292 138.8873 0011373 223.3560 136.6713 14.61903141852149"
      },
      "geometry": {
        "type": "Point",
        "coordinates": [
          125.0928189942106,
          -26.76092727420738
        ]
      }
    },
    {
      "type": "Feature",
      "properties": {
        "norad_id": 36050,
        "name": "COSMOS 2251 DEB",
        "group": "cosmos-2251-debris",
        "lat": 73.46639690418739,
        "lon": -76.15488108121065,
        "alt_km": 612.9238756840859,
        "timestamp": "2025-12-05T07:38:19.242450+00:00",
        "meta_object_name": "COSMOS 2251 DEB",
        "meta_object_id": "1993-036AXM",
        "meta_epoch": "2025-12-03T08:51:43.557696",
        "meta_mean_motion": 15.00813844,
        "meta_eccentricity": 0.00890805,
        "meta_inclination": 74.0318,
        "meta_ra_of_asc_node": 213.1033,
        "meta_arg_of_pericenter": 294.9563,
        "meta_mean_anomaly": 64.2389,
        "meta_ephemeris_type": 0,
        "meta_classification_type": "U",
        "meta_norad_cat_id": 36050,
        "meta_element_set_no": 999,
        "meta_rev_at_epoch": 66894,
        "meta_bstar": 0.00068060745,
        "meta_mean_motion_dot": 9.378e-05,
        "meta_mean_motion_ddot": 0,
        "tle_line1": "1 36050U 93036AXM 25337.36925414  .00009378  00000+0  68061-3 0  9999",
        "tle_line2": "2 36050  74.0318 213.1033 0089080 294.9563  64.2389 15.00813844668944"
      },
      "geometry": {
        "type": "Point",
        "coordinates": [
          -76.15488108121065,
          73.46639690418739
        ]
      }
    },
    {
      "type": "Feature",
      "properties": {
        "norad_id": 36053,
        "name": "COSMOS 2251 DEB",
        "group": "cosmos-2251-debris",
        "lat": 72.1550095002643,
        "lon": -129.07130827465937,
        "alt_km": 676.7669962748823,
        "timestamp": "2025-12-05T07:38:19.242462+00:00",
        "meta_object_name": "COSMOS 2251 DEB",
        "meta_object_id": "1993-036AXQ",
        "meta_epoch": "2025-12-01T06:02:04.873920",
        "meta_mean_motion": 14.56926822,
        "meta_eccentricity": 0.0033176,
        "meta_inclination": 73.8721,
        "meta_ra_of_asc_node": 174.7239,
        "meta_arg_of_pericenter": 127.7081,
        "meta_mean_anomaly": 232.7098,
        "meta_ephemeris_type": 0,
        "meta_classification_type": "U",
        "meta_norad_cat_id": 36053,
        "meta_element_set_no": 999,
        "meta_rev_at_epoch": 87277,
        "meta_bstar": 0.0017117,
        "meta_mean_motion_dot": 7.72e-05,
        "meta_mean_motion_ddot": 0,
        "tle_line1": "1 36053U 93036AXQ 25335.25144530  .00007720  00000+0  17117-2 0  9994",
        "tle_line2": "2 36053  73.8721 174.7239 0033176 127.7081 232.7098 14.56926822872773"
      },
      "geometry": {
        "type": "Point",
        "coordinates": [
          -129.07130827465937,
          72.1550095002643
        ]
      }
    }
  ]
}